[{"OBJECT_NAME":"STARLINK-31666","OBJECT_ID":"2024-076J","EPOCH":"2026-03-09T04:06:12.654720","MEAN_MOTION":15.27577145,"ECCENTRICITY":0.00011205,"INCLINATION":43.0036,"RA_OF_ASC_NODE":4.9544,"ARG_OF_PERICENTER":268.9882,"MEAN_ANOMALY":91.0841,"EPHEMERIS_TYPE":0,"CLASSIFICATION_TYPE":"U","NORAD_CAT_ID":59572,"ELEMENT_SET_NO":999,"REV_AT_EPOCH":10650,"BSTAR":-5.4722042e-5,"MEAN_MOTION_DOT":-1.767e-5,"MEAN_MOTION_DDOT":0},{"OBJECT_NAME":"OBJECT BC","OBJECT_ID":"2025-313BC","EPOCH":"2026-03-09T04:33:08.504064","MEAN_MOTION":15.29126358,"ECCENTRICITY":0.00084789,"INCLINATION":97.3985,"RA_OF_ASC_NODE":144.811,"ARG_OF_PERICENTER":328.9209,"MEAN_ANOMALY":31.1528,"EPHEMERIS_TYPE":0,"CLASSIFICATION_TYPE":"U","NORAD_CAT_ID":67298,"ELEMENT_SET_NO":999,"REV_AT_EPOCH":789,"BSTAR":0.0026410397,"MEAN_MOTION_DOT":0.00075331,"MEAN_MOTION_DDOT":0}]
