STARLINK-31666          
1 59572U 24076J   26068.17097980 -.00001767  00000+0 -54722-4 0  9996
2 59572  43.0036   4.9544 0001120 268.9882  91.0841 15.27577145106508
2025-313BC              
1 67298U 25313BC  26068.18968176  .00075331  00000+0  26410-2 0  9997
2 67298  97.3985 144.8110 0008478 328.9209  31.1528 15.29126358  7890
